OSCAR 7 (AO-7)          
1 07530U 74089B   26188.00496110 -.00000048  00000+0 -79381-5 0  9995
2 07530 101.9900 201.4580 0012665  93.5069 293.3823 12.53698403363002
PHASE 3B (AO-10)        
1 14129U 83058B   26187.30639496  .00000240  00000+0  00000+0 0  9999
2 14129  25.9287 216.4111 6004451 120.9204 311.3694  2.05868973295883
UOSAT 2 (UO-11)         
1 14781U 84021B   26188.15576286  .00001051  00000+0  11240-3 0  9998
2 14781  97.8069 153.5091 0009088 113.4229 246.7946 14.90835034260107
LUSAT (LO-19)           
1 20442U 90005G   26187.57763326  .00000096  00000+0  51049-4 0  9996
2 20442  98.8845 209.9170 0012194 144.9529 215.2460 14.34128987905174
EYESAT A (AO-27)        
1 22825U 93061C   26188.13790326  .00000072  00000+0  44304-4 0  9991
2 22825  98.6871 255.5434 0009160  47.8200 312.3759 14.30947627709857
ITAMSAT (IO-26)         
1 22826U 93061D   26187.69194508  .00000089  00000+0  50471-4 0  9992
2 22826  98.6820 255.0170 0009437  33.2338 326.9435 14.31375033710101
RADIO ROSTO (RS15)      
1 23439U 94085A   26188.15971560 -.00000037  00000+0  14325-3 0  9994
2 23439  64.8166 270.9161 0156626   0.1895 359.9063 11.27583444298158
JAS-2 (FO-29)           
1 24278U 96046B   26187.82950257 -.00000018  00000+0  15885-4 0  9990
2 24278  98.5225  34.0093 0350676  45.6079 317.3214 13.53275038475827
TECHSAT 1B (GO-32)      
1 25397U 98043D   26187.94313304  .00000041  00000+0  37960-4 0  9994
2 25397  99.0077 181.2008 0001943 128.2186 231.9167 14.24432203454147
ISS (ZARYA)             
1 25544U 98067A   26188.18576601  .00005994  00000+0  11712-3 0  9990
2 25544  51.6305 201.1096 0006690 265.7165  94.3058 15.48929707574854
PCSAT (NO-44)           
1 26931U 01043C   26187.71597948  .00000106  00000+0  70598-4 0  9992
2 26931  67.0487 193.7609 0005989 265.9645  94.0772 14.31962724293246
SAUDISAT 1C (SO-50)     
1 27607U 02058C   26188.11499616  .00000749  00000+0  10582-3 0  9997
2 27607  64.5520  67.3282 0074752 258.7570 100.5128 14.83088031267416
CUTE-1 (CO-55)          
1 27844U 03031E   26187.98753248  .00000239  00000+0  12235-3 0  9991
2 27844  98.6738 196.2974 0010610 123.9275 236.2914 14.24347889194497
CUBESAT XI-IV (CO-57)   
1 27848U 03031J   26187.98593671  .00000199  00000+0  10620-3 0  9998
2 27848  98.6770 195.9925 0010187 141.0143 219.1771 14.23631325194191
MOZHAETS 4 (RS22)       
1 27939U 03042A   26188.19100050  .00001227  00000+0  19706-3 0  9997
2 27939  98.3477  13.1153 0010597 199.3964 297.2924 14.73506441218491
CUBESAT XI-V            
1 28895U 05043F   26187.90288029  .00001301  00000+0  21205-3 0  9993
2 28895  98.3006 343.9413 0014934 139.5987 220.6332 14.72686848104658
CUTE-1.7+APD II (CO-65) 
1 32785U 08021C   26188.13474029  .00003527  00000+0  22322-3 0  9991
2 32785  97.8289 169.9714 0007586 332.5664  27.5163 15.09652011988203
SEEDS II (CO-66)        
1 32791U 08021J   26187.97759588  .00013488  00000+0  41928-3 0  9995
2 32791  97.7526 186.8299 0002095 175.3299 184.7963 15.33467667990324
YUBILEINY (RS30)        
1 32953U 08025A   26188.21797881 -.00000003  00000+0 -92788-4 0  9997
2 32953  82.5058 342.9784 0018509 267.5565  92.3396 12.43180169822186
KKS-1 (KISEKI)          
1 33499U 09002H   26188.09133912  .00001189  00000+0  15249-3 0  9994
2 33499  98.1180 110.8489 0006800 217.7098 142.3639 14.83175537939144
SWISSCUBE               
1 35932U 09051B   26187.73580808  .00000901  00000+0  18748-3 0  9990
2 35932  98.4019  95.9636 0007377 142.1539 218.0181 14.62519591892016
BEESAT-1                
1 35933U 09051C   26187.68699793  .00000825  00000+0  17521-3 0  9992
2 35933  98.3946  95.5083 0005594 152.8546 207.2947 14.61752775892036
ITUPSAT1                
1 35935U 09051E   26187.96902507  .00000669  00000+0  14806-3 0  9994
2 35935  98.4029  94.9654 0007491 167.2439 192.8951 14.60470414891621
XIWANG-1 (HOPE-1)       
1 36122U 09072B   26188.15565138  .00000284  00000+0  85970-3 0  9996
2 36122 100.4036 141.6696 0007307 183.1266 176.9802 13.16440418795632
O/OREOS (USA 219)       
1 37224U 10062C   26188.01862281  .00001776  00000+0  17289-3 0  9990
2 37224  71.9708  35.4141 0013472  21.2567 338.9160 14.93830285119600
JUGNU                   
1 37839U 11058B   26188.05385066  .00000388  00000+0  62949-4 0  9995
2 37839  19.9587 187.7288 0018356 296.0601 101.0732 14.13781645761849
SRMSAT                  
1 37841U 11058D   26187.37330642  .00000384  00000+0  64430-4 0  9995
2 37841  19.9727 303.3445 0011875  55.1210 344.5933 14.11579689760531
STRAND-1                
1 39090U 13009E   26187.96776610  .00000244  00000+0  96432-4 0  9997
2 39090  98.3931   7.7160 0008934 164.1358 196.0110 14.37175365699902
ZACUBE-1 (TSHEPISOSAT)  
1 39417U 13066B   26187.93669309  .00002201  00000+0  17263-3 0  9995
2 39417  97.8024 150.3724 0043453 181.7019 178.4064 15.01303291683691
GOMX-1                  
1 39430U 13066Q   26188.20481108  .00001852  00000+0  28242-3 0  9990
2 39430  97.6473  27.4036 0129018  13.8510 346.6182 14.69530606672856
